{
  "type": "FeatureCollection",
  "features": [
    {
      "type": "Feature",
      "properties": {
        "norad_id": 34492,
        "name": "IRIDIUM 33 DEB",
        "group": "iridium-33-debris",
        "lat": 27.30660801405524,
        "lon": 149.80493321839967,
        "alt_km": 738.0958124743975,
        "timestamp": "2025-12-20T03:42:47.779093+00:00",
        "meta_object_name": "IRIDIUM 33 DEB",
        "meta_object_id": "1997-051GH",
        "meta_epoch": "2025-12-19T10:45:18.347328",
        "meta_mean_motion": 14.25846982,
        "meta_eccentricity": 0.0188646,
        "meta_inclination": 86.4707,
        "meta_ra_of_asc_node": 331.9164,
        "meta_arg_of_pericenter": 216.3823,
        "meta_mean_anomaly": 273.3437,
        "meta_ephemeris_type": 0,
        "meta_classification_type": "U",
        "meta_norad_cat_id": 34492,
        "meta_element_set_no": 999,
        "meta_rev_at_epoch": 85154,
        "meta_bstar": 0.0022012,
        "meta_mean_motion_dot": 6.332e-05,
        "meta_mean_motion_ddot": 0,
        "tle_line1": "1 34492U 97051GH  25353.44812902  .00006332  00000+0  22012-2 0  9994",
        "tle_line2": "2 34492  86.4707 331.9164 0188646 216.3823 273.3437 14.25846982851542"
      },
      "geometry": {
        "type": "Point",
        "coordinates": [
          149.80493321839967,
          27.30660801405524
        ]
      }
    },
    {
      "type": "Feature",
      "properties": {
        "norad_id": 34497,
        "name": "IRIDIUM 33 DEB",
        "group": "iridium-33-debris",
        "lat": 77.32630428931502,
        "lon": 66.0627167687232,
        "alt_km": 822.9730579695151,
        "timestamp": "2025-12-20T03:42:47.779103+00:00",
        "meta_object_name": "IRIDIUM 33 DEB",
        "meta_object_id": "1997-051GN",
        "meta_epoch": "2025-12-19T10:35:53.025216",
        "meta_mean_motion": 14.2747197,
        "meta_eccentricity": 0.0078309,
        "meta_inclination": 86.2774,
        "meta_ra_of_asc_node": 49.5385,
        "meta_arg_of_pericenter": 317.619,
        "meta_mean_anomaly": 57.0969,
        "meta_ephemeris_type": 0,
        "meta_classification_type": "U",
        "meta_norad_cat_id": 34497,
        "meta_element_set_no": 999,
        "meta_rev_at_epoch": 86979,
        "meta_bstar": 0.00044435,
        "meta_mean_motion_dot": 1.145e-05,
        "meta_mean_motion_ddot": 0,
        "tle_line1": "1 34497U 97051GN  25353.44158594  .00001145  00000+0  44435-3 0  9990",
        "tle_line2": "2 34497  86.2774  49.5385 0078309 317.6190  57.0969 14.27471970869798"
      },
      "geometry": {
        "type": "Point",
        "coordinates": [
          66.0627167687232,
          77.32630428931502
        ]
      }
    },
    {
      "type": "Feature",
      "properties": {
        "norad_id": 34508,
        "name": "IRIDIUM 33 DEB",
        "group": "iridium-33-debris",
        "lat": 11.455485167993318,
        "lon": -81.23688820051457,
        "alt_km": 720.1179518901235,
        "timestamp": "2025-12-20T03:42:47.779114+00:00",
        "meta_object_name": "IRIDIUM 33 DEB",
        "meta_object_id": "1997-051GZ",
        "meta_epoch": "2025-12-19T06:54:06.441120",
        "meta_mean_motion": 14.38473954,
        "meta_eccentricity": 0.0066492,
        "meta_inclination": 86.3709,
        "meta_ra_of_asc_node": 99.8676,
        "meta_arg_of_pericenter": 151.959,
        "meta_mean_anomaly": 208.5216,
        "meta_ephemeris_type": 0,
        "meta_classification_type": "U",
        "meta_norad_cat_id": 34508,
        "meta_element_set_no": 999,
        "meta_rev_at_epoch": 87403,
        "meta_bstar": 0.00082341,
        "meta_mean_motion_dot": 2.599e-05,
        "meta_mean_motion_ddot": 0,
        "tle_line1": "1 34508U 97051GZ  25353.28757455  .00002599  00000+0  82341-3 0  9998",
        "tle_line2": "2 34508  86.3709  99.8676 0066492 151.9590 208.5216 14.38473954874031"
      },
      "geometry": {
        "type": "Point",
        "coordinates": [
          -81.23688820051457,
          11.455485167993318
        ]
      }
    },
    {
      "type": "Feature",
      "properties": {
        "norad_id": 34521,
        "name": "IRIDIUM 33 DEB",
        "group": "iridium-33-debris",
        "lat": -68.98705113964725,
        "lon": 17.79515404820216,
        "alt_km": 690.0427491618711,
        "timestamp": "2025-12-20T03:42:47.779124+00:00",
        "meta_object_name": "IRIDIUM 33 DEB",
        "meta_object_id": "1997-051HN",
        "meta_epoch": "2025-12-19T03:24:49.282848",
        "meta_mean_motion": 14.63417651,
        "meta_eccentricity": 0.0002349,
        "meta_inclination": 86.3791,
        "meta_ra_of_asc_node": 27.7294,
        "meta_arg_of_pericenter": 185.2812,
        "meta_mean_anomaly": 174.8375,
        "meta_ephemeris_type": 0,
        "meta_classification_type": "U",
        "meta_norad_cat_id": 34521,
        "meta_element_set_no": 999,
        "meta_rev_at_epoch": 88566,
        "meta_bstar": 0.00061239026,
        "meta_mean_motion_dot": 3.188e-05,
        "meta_mean_motion_ddot": 0,
        "tle_line1": "1 34521U 97051HN  25353.14223707  .00003188  00000+0  61239-3 0  9994",
        "tle_line2": "2 34521  86.3791  27.7294 0002349 185.2812 174.8375 14.63417651885663"
      },
      "geometry": {
        "type": "Point",
        "coordinates": [
          17.79515404820216,
          -68.98705113964725
        ]
      }
    },
    {
      "type": "Feature",
      "properties": {
        "norad_id": 34525,
        "name": "IRIDIUM 33 DEB",
        "group": "iridium-33-debris",
        "lat": -75.82554639364695,
        "lon": 29.1305821863977,
        "alt_km": 760.4276353970699,
        "timestamp": "2025-12-20T03:42:47.779134+00:00",
        "meta_object_name": "IRIDIUM 33 DEB",
        "meta_object_id": "1997-051HS",
        "meta_epoch": "2025-12-19T03:14:12.830208",
        "meta_mean_motion": 14.42920186,
        "meta_eccentricity": 0.00065078,
        "meta_inclination": 86.3722,
        "meta_ra_of_asc_node": 44.1141,
        "meta_arg_of_pericenter": 80.5154,
        "meta_mean_anomaly": 309.013,
        "meta_ephemeris_type": 0,
        "meta_classification_type": "U",
        "meta_norad_cat_id": 34525,
        "meta_element_set_no": 999,
        "meta_rev_at_epoch": 88180,
        "meta_bstar": 0.00026538201,
        "meta_mean_motion_dot": 9.07e-06,
        "meta_mean_motion_ddot": 0,
        "tle_line1": "1 34525U 97051HS  25353.13487072  .00000907  00000+0  26538-3 0  9993",
        "tle_line2": "2 34525  86.3722  44.1141 0006507  80.5154 309.0130 14.42920186881803"
      },
      "geometry": {
        "type": "Point",
        "coordinates": [
          29.1305821863977,
          -75.82554639364695
        ]
      }
    },
    {
      "type": "Feature",
      "properties": {
        "norad_id": 34529,
        "name": "IRIDIUM 33 DEB",
        "group": "iridium-33-debris",
        "lat": 62.392439465555015,
        "lon": -154.73369611828934,
        "alt_km": 747.3023909580197,
        "timestamp": "2025-12-20T03:42:47.779145+00:00",
        "meta_object_name": "IRIDIUM 33 DEB",
        "meta_object_id": "1997-051HW",
        "meta_epoch": "2025-12-19T08:50:00.041856",
        "meta_mean_motion": 14.40620735,
        "meta_eccentricity": 0.0005577,
        "meta_inclination": 86.3636,
        "meta_ra_of_asc_node": 32.5863,
        "meta_arg_of_pericenter": 157.5108,
        "meta_mean_anomaly": 202.6336,
        "meta_ephemeris_type": 0,
        "meta_classification_type": "U",
        "meta_norad_cat_id": 34529,
        "meta_element_set_no": 999,
        "meta_rev_at_epoch": 88237,
        "meta_bstar": 8.6825e-05,
        "meta_mean_motion_dot": 2.97e-06,
        "meta_mean_motion_ddot": 0,
        "tle_line1": "1 34529U 97051HW  25353.36805604  .00000297  00000+0  86825-4 0  9995",
        "tle_line2": "2 34529  86.3636  32.5863 0005577 157.5108 202.6336 14.40620735882377"
      },
      "geometry": {
        "type": "Point",
        "coordinates": [
          -154.73369611828934,
          62.392439465555015
        ]
      }
    },
    {
      "type": "Feature",
      "properties": {
        "norad_id": 34538,
        "name": "IRIDIUM 33 DEB",
        "group": "iridium-33-debris",
        "lat": 9.370780420735787,
        "lon": 2.9239372998726707,
        "alt_km": 742.3257376573292,
        "timestamp": "2025-12-20T03:42:47.779155+00:00",
        "meta_object_name": "IRIDIUM 33 DEB",
        "meta_object_id": "1997-051JF",
        "meta_epoch": "2025-12-19T11:38:01.114368",
        "meta_mean_motion": 14.42685195,
        "meta_eccentricity": 0.0032244,
        "meta_inclination": 86.2759,
        "meta_ra_of_asc_node": 2.6015,
        "meta_arg_of_pericenter": 304.7784,
        "meta_mean_anomaly": 186.9228,
        "meta_ephemeris_type": 0,
        "meta_classification_type": "U",
        "meta_norad_cat_id": 34538,
        "meta_element_set_no": 999,
        "meta_rev_at_epoch": 87853,
        "meta_bstar": 0.00065883,
        "meta_mean_motion_dot": 2.223e-05,
        "meta_mean_motion_ddot": 0,
        "tle_line1": "1 34538U 97051JF  25353.48473512  .00002223  00000+0  65883-3 0  9998",
        "tle_line2": "2 34538  86.2759   2.6015 0032244 304.7784 186.9228 14.42685195878536"
      },
      "geometry": {
        "type": "Point",
        "coordinates": [
          2.9239372998726707,
          9.370780420735787
        ]
      }
    }
  ]
}